{
  "type": "FeatureCollection",
  "features": [
    {
      "type": "Feature",
      "properties": {
        "norad_id": 34079,
        "name": "IRIDIUM 33 DEB",
        "group": "iridium-33-debris",
        "lat": -81.33165935774423,
        "lon": -21.233584968012913,
        "alt_km": 622.7001332599611,
        "timestamp": "2025-12-24T11:33:00.402621+00:00",
        "meta_object_name": "IRIDIUM 33 DEB",
        "meta_object_id": "1997-051CN",
        "meta_epoch": "2025-12-24T00:49:45.628032",
        "meta_mean_motion": 14.83813263,
        "meta_eccentricity": 0.0004202,
        "meta_inclination": 86.3774,
        "meta_ra_of_asc_node": 3.5237,
        "meta_arg_of_pericenter": 326.1883,
        "meta_mean_anomaly": 87.1678,
        "meta_ephemeris_type": 0,
        "meta_classification_type": "U",
        "meta_norad_cat_id": 34079,
        "meta_element_set_no": 999,
        "meta_rev_at_epoch": 89145,
        "meta_bstar": 0.0018637,
        "meta_mean_motion_dot": 0.00015485,
        "meta_mean_motion_ddot": 0,
        "tle_line1": "1 34079U 97051CN  25358.03455588  .00015485  00000+0  18637-2 0  9995",
        "tle_line2": "2 34079  86.3774   3.5237 0004202 326.1883  87.1678 14.83813263891452"
      },
      "geometry": {
        "type": "Point",
        "coordinates": [
          -21.233584968012913,
          -81.33165935774423
        ]
      }
    },
    {
      "type": "Feature",
      "properties": {
        "norad_id": 34088,
        "name": "IRIDIUM 33 DEB",
        "group": "iridium-33-debris",
        "lat": -14.639857089487176,
        "lon": 24.379348496706594,
        "alt_km": 601.22453508934,
        "timestamp": "2025-12-24T11:33:00.402631+00:00",
        "meta_object_name": "IRIDIUM 33 DEB",
        "meta_object_id": "1997-051CX",
        "meta_epoch": "2025-12-24T03:52:26.243040",
        "meta_mean_motion": 14.91875213,
        "meta_eccentricity": 0.0006945,
        "meta_inclination": 86.3838,
        "meta_ra_of_asc_node": 25.473,
        "meta_arg_of_pericenter": 140.8902,
        "meta_mean_anomaly": 287.9518,
        "meta_ephemeris_type": 0,
        "meta_classification_type": "U",
        "meta_norad_cat_id": 34088,
        "meta_element_set_no": 999,
        "meta_rev_at_epoch": 88912,
        "meta_bstar": 0.0023778,
        "meta_mean_motion_dot": 0.0002411,
        "meta_mean_motion_ddot": 0,
        "tle_line1": "1 34088U 97051CX  25358.16141485  .00024110  00000+0  23778-2 0  9994",
        "tle_line2": "2 34088  86.3838  25.4730 0006945 140.8902 287.9518 14.91875213889129"
      },
      "geometry": {
        "type": "Point",
        "coordinates": [
          24.379348496706594,
          -14.639857089487176
        ]
      }
    },
    {
      "type": "Feature",
      "properties": {
        "norad_id": 34091,
        "name": "IRIDIUM 33 DEB",
        "group": "iridium-33-debris",
        "lat": 45.81914699950757,
        "lon": -122.32220443394444,
        "alt_km": 627.9522209685483,
        "timestamp": "2025-12-24T11:33:00.402642+00:00",
        "meta_object_name": "IRIDIUM 33 DEB",
        "meta_object_id": "1997-051DA",
        "meta_epoch": "2025-12-23T21:59:09.722400",
        "meta_mean_motion": 14.82607708,
        "meta_eccentricity": 0.0034182,
        "meta_inclination": 86.3412,
        "meta_ra_of_asc_node": 61.7123,
        "meta_arg_of_pericenter": 253.0965,
        "meta_mean_anomaly": 106.6509,
        "meta_ephemeris_type": 0,
        "meta_classification_type": "U",
        "meta_norad_cat_id": 34091,
        "meta_element_set_no": 999,
        "meta_rev_at_epoch": 88032,
        "meta_bstar": 0.0046837,
        "meta_mean_motion_dot": 0.00038267,
        "meta_mean_motion_ddot": 0,
        "tle_line1": "1 34091U 97051DA  25357.91608475  .00038267  00000+0  46837-2 0  9996",
        "tle_line2": "2 34091  86.3412  61.7123 0034182 253.0965 106.6509 14.82607708880322"
      },
      "geometry": {
        "type": "Point",
        "coordinates": [
          -122.32220443394444,
          45.81914699950757
        ]
      }
    },
    {
      "type": "Feature",
      "properties": {
        "norad_id": 34097,
        "name": "IRIDIUM 33 DEB",
        "group": "iridium-33-debris",
        "lat": -0.7881818662299631,
        "lon": 176.27663415782732,
        "alt_km": 825.0859537225124,
        "timestamp": "2025-12-24T11:33:00.402652+00:00",
        "meta_object_name": "IRIDIUM 33 DEB",
        "meta_object_id": "1997-051DG",
        "meta_epoch": "2025-12-24T00:39:48.600576",
        "meta_mean_motion": 14.34864137,
        "meta_eccentricity": 0.0081483,
        "meta_inclination": 86.2003,
        "meta_ra_of_asc_node": 356.4244,
        "meta_arg_of_pericenter": 325.2171,
        "meta_mean_anomaly": 34.3712,
        "meta_ephemeris_type": 0,
        "meta_classification_type": "U",
        "meta_norad_cat_id": 34097,
        "meta_element_set_no": 999,
        "meta_rev_at_epoch": 87281,
        "meta_bstar": 0.0015313,
        "meta_mean_motion_dot": 4.532e-05,
        "meta_mean_motion_ddot": 0,
        "tle_line1": "1 34097U 97051DG  25358.02764584  .00004532  00000+0  15313-2 0  9992",
        "tle_line2": "2 34097  86.2003 356.4244 0081483 325.2171  34.3712 14.34864137872814"
      },
      "geometry": {
        "type": "Point",
        "coordinates": [
          176.27663415782732,
          -0.7881818662299631
        ]
      }
    },
    {
      "type": "Feature",
      "properties": {
        "norad_id": 34145,
        "name": "IRIDIUM 33 DEB",
        "group": "iridium-33-debris",
        "lat": 47.02038693329121,
        "lon": -28.62658702250002,
        "alt_km": 707.4714117517351,
        "timestamp": "2025-12-24T11:33:00.402663+00:00",
        "meta_object_name": "IRIDIUM 33 DEB",
        "meta_object_id": "1997-051DY",
        "meta_epoch": "2025-12-23T05:21:52.043328",
        "meta_mean_motion": 14.4235986,
        "meta_eccentricity": 0.00556029,
        "meta_inclination": 86.2126,
        "meta_ra_of_asc_node": 327.8569,
        "meta_arg_of_pericenter": 60.5255,
        "meta_mean_anomaly": 300.1476,
        "meta_ephemeris_type": 0,
        "meta_classification_type": "U",
        "meta_norad_cat_id": 34145,
        "meta_element_set_no": 999,
        "meta_rev_at_epoch": 87789,
        "meta_bstar": 0.0011656692,
        "meta_mean_motion_dot": 3.943e-05,
        "meta_mean_motion_ddot": 0,
        "tle_line1": "1 34145U 97051DY  25357.22351902  .00003943  00000+0  11657-2 0  9995",
        "tle_line2": "2 34145  86.2126 327.8569 0055602  60.5255 300.1476 14.42359860877897"
      },
      "geometry": {
        "type": "Point",
        "coordinates": [
          -28.62658702250002,
          47.02038693329121
        ]
      }
    },
    {
      "type": "Feature",
      "properties": {
        "norad_id": 34146,
        "name": "IRIDIUM 33 DEB",
        "group": "iridium-33-debris",
        "lat": -29.73078080016683,
        "lon": -17.51420966803645,
        "alt_km": 750.799690121652,
        "timestamp": "2025-12-24T11:33:00.402674+00:00",
        "meta_object_name": "IRIDIUM 33 DEB",
        "meta_object_id": "1997-051DZ",
        "meta_epoch": "2025-12-23T05:55:17.173920",
        "meta_mean_motion": 14.49112641,
        "meta_eccentricity": 0.00266651,
        "meta_inclination": 86.2838,
        "meta_ra_of_asc_node": 345.1581,
        "meta_arg_of_pericenter": 185.2875,
        "meta_mean_anomaly": 188.6764,
        "meta_ephemeris_type": 0,
        "meta_classification_type": "U",
        "meta_norad_cat_id": 34146,
        "meta_element_set_no": 999,
        "meta_rev_at_epoch": 88259,
        "meta_bstar": 0.00083812732,
        "meta_mean_motion_dot": 3.219e-05,
        "meta_mean_motion_ddot": 0,
        "tle_line1": "1 34146U 97051DZ  25357.24672655  .00003219  00000+0  83813-3 0  9999",
        "tle_line2": "2 34146  86.2838 345.1581 0026665 185.2875 188.6764 14.49112641882598"
      },
      "geometry": {
        "type": "Point",
        "coordinates": [
          -17.51420966803645,
          -29.73078080016683
        ]
      }
    },
    {
      "type": "Feature",
      "properties": {
        "norad_id": 34159,
        "name": "IRIDIUM 33 DEB",
        "group": "iridium-33-debris",
        "lat": -41.214112351836214,
        "lon": 40.02771787279285,
        "alt_km": 764.365529302896,
        "timestamp": "2025-12-24T11:33:00.402684+00:00",
        "meta_object_name": "IRIDIUM 33 DEB",
        "meta_object_id": "1997-051EN",
        "meta_epoch": "2025-12-24T03:23:40.790112",
        "meta_mean_motion": 14.38520476,
        "meta_eccentricity": 0.002615,
        "meta_inclination": 86.3488,
        "meta_ra_of_asc_node": 43.3787,
        "meta_arg_of_pericenter": 247.4355,
        "meta_mean_anomaly": 112.4075,
        "meta_ephemeris_type": 0,
        "meta_classification_type": "U",
        "meta_norad_cat_id": 34159,
        "meta_element_set_no": 999,
        "meta_rev_at_epoch": 88123,
        "meta_bstar": 0.00037198,
        "meta_mean_motion_dot": 1.16e-05,
        "meta_mean_motion_ddot": 0,
        "tle_line1": "1 34159U 97051EN  25358.14144433  .00001160  00000+0  37198-3 0  9999",
        "tle_line2": "2 34159  86.3488  43.3787 0026150 247.4355 112.4075 14.38520476881239"
      },
      "geometry": {
        "type": "Point",
        "coordinates": [
          40.02771787279285,
          -41.214112351836214
        ]
      }
    }
  ]
}